IRIDIUM 112             
1 41925U 17003J   24228.37899649  .00000014  00000+0 -20340-5 0  9994
2 41925  86.3995   8.6215 0002329  97.3497 262.7963 14.34224172397127
IRIDIUM 111             
1 41926U 17003K   24228.92445328  .00000949  00000+0  33187-3 0  9994
2 41926  86.3998   8.4490 0002553  87.7819 272.3669 14.34224646397186
IRIDIUM 113             
1 42803U 17039A   24228.76489707  .00000101  00000+0  28991-4 0  9997
2 42803  86.3933 242.2768 0002565  88.7522 271.3967 14.34217513375092
IRIDIUM 123             
1 42804U 17039B   24228.87613420  .00000310  00000+0  10354-3 0  9996
2 42804  86.3935 273.7394 0002147  90.2840 269.8601 14.34217761373872
IRIDIUM 120             
1 42805U 17039C   24228.75854820  .00000243  00000+0  79650-4 0  9995
2 42805  86.3923 242.1489 0002215  90.4780 269.6669 14.34220147375085
IRIDIUM 115             
1 42806U 17039D   24228.96662339  .00000283  00000+0  78025-4 0  9990
2 42806  86.4462 242.0953 0002651  87.8946 272.2559 14.43278542377596
IRIDIUM 118             
1 42807U 17039E   24228.83807809  .00000613  00000+0  21179-3 0  9994
2 42807  86.3931 273.7564 0002252  94.5845 265.5608 14.34223392373865
IRIDIUM 117             
1 42808U 17039F   24228.85711042  .00000285  00000+0  94704-4 0  9990
2 42808  86.3929 273.7124 0002415  88.6794 271.4679 14.34220525373895
